[{"OBJECT_NAME":"NOAA 18","OBJECT_ID":"2005-018A","EPOCH":"2026-03-27T19:14:35.932992","MEAN_MOTION":14.13714453,"ECCENTRICITY":0.001462,"INCLINATION":98.8132,"RA_OF_ASC_NODE":167.6533,"ARG_OF_PERICENTER":26.6802,"MEAN_ANOMALY":333.512,"EPHEMERIS_TYPE":0,"CLASSIFICATION_TYPE":"U","NORAD_CAT_ID":28654,"ELEMENT_SET_NO":999,"REV_AT_EPOCH":7481,"BSTAR":4.5985e-5,"MEAN_MOTION_DOT":4.3e-7,"MEAN_MOTION_DDOT":0},{"OBJECT_NAME":"NOAA 19","OBJECT_ID":"2009-005A","EPOCH":"2026-03-27T18:52:08.785920","MEAN_MOTION":14.13460307,"ECCENTRICITY":0.0012721,"INCLINATION":98.9573,"RA_OF_ASC_NODE":157.5848,"ARG_OF_PERICENTER":259.421,"MEAN_ANOMALY":100.5529,"EPHEMERIS_TYPE":0,"CLASSIFICATION_TYPE":"U","NORAD_CAT_ID":33591,"ELEMENT_SET_NO":999,"REV_AT_EPOCH":88298,"BSTAR":4.8007e-5,"MEAN_MOTION_DOT":4.5e-7,"MEAN_MOTION_DDOT":0},{"OBJECT_NAME":"SUOMI NPP","OBJECT_ID":"2011-061A","EPOCH":"2026-03-27T20:35:41.442720","MEAN_MOTION":14.1949822,"ECCENTRICITY":0.0001608,"INCLINATION":98.7891,"RA_OF_ASC_NODE":28.3183,"ARG_OF_PERICENTER":161.5834,"MEAN_ANOMALY":198.54,"EPHEMERIS_TYPE":0,"CLASSIFICATION_TYPE":"U","NORAD_CAT_ID":37849,"ELEMENT_SET_NO":999,"REV_AT_EPOCH":74690,"BSTAR":6.551e-5,"MEAN_MOTION_DOT":9.4e-7,"MEAN_MOTION_DDOT":0},{"OBJECT_NAME":"NOAA 20 (JPSS-1)","OBJECT_ID":"2017-073A","EPOCH":"2026-03-27T19:15:00.353088","MEAN_MOTION":14.19540671,"ECCENTRICITY":0.0001866,"INCLINATION":98.7712,"RA_OF_ASC_NODE":27.0114,"ARG_OF_PERICENTER":113.2704,"MEAN_ANOMALY":246.8668,"EPHEMERIS_TYPE":0,"CLASSIFICATION_TYPE":"U","NORAD_CAT_ID":43013,"ELEMENT_SET_NO":999,"REV_AT_EPOCH":43292,"BSTAR":5.9509e-5,"MEAN_MOTION_DOT":8.1e-7,"MEAN_MOTION_DDOT":0}]
