NOAA 18                 
1 28654U 05018A   26086.80180478  .00000043  00000+0  45985-4 0  9998
2 28654  98.8132 167.6533 0014620  26.6802 333.5120 14.13714453 74816
NOAA 19                 
1 33591U 09005A   26086.78621280  .00000045  00000+0  48007-4 0  9992
2 33591  98.9573 157.5848 0012721 259.4210 100.5529 14.13460307882984
SUOMI NPP               
1 37849U 11061A   26086.85811855  .00000094  00000+0  65510-4 0  9996
2 37849  98.7891  28.3183 0001608 161.5834 198.5400 14.19498220746906
NOAA 20 (JPSS-1)        
1 43013U 17073A   26086.80208742  .00000081  00000+0  59509-4 0  9992
2 43013  98.7712  27.0114 0001866 113.2704 246.8668 14.19540671432929
